[Satellite]
VERSION=1.1
NAME=ANIK F3
NICKNAME=ANIK F3
TLE1=1 31102U 07009A   15053.66137972 -.00000026  00000-0  00000+0 0  9996
TLE2=2 31102   0.0048 182.3898 0001719 180.1282 269.0895  1.00274042 28896
